{"type":"FeatureCollection","features":[{"type":"Feature","properties":{"zoneId":"Z000200028","zoneName":"강동송파4학교군","level":"middle","eduOffice":"서울특별시강동송파교육지원청"},"geometry":{"type":"Polygon","coordinates":[[[127.13844489453885,37.519313010978216],[127.14382786497254,37.5170328318898],[127.14511204849985,37.51683301711512],[127.14543381261471,37.51642891623785],[127.14543893765837,37.51606513001292],[127.14460332317346,37.51560663816252],[127.14061415189079,37.515589162838005],[127.14120947276731,37.51504472069409],[127.14342964693839,37.51388066149393],[127.14352812271088,37.51265717483041],[127.14288443617924,37.512733683670305],[127.1414393932278,37.512400630681235],[127.14110476994142,37.51112724244289],[127.1412169524824,37.5108230241233],[127.1409466563091,37.51039819120325],[127.1403428142291,37.51022517051667],[127.13993462526318,37.50852389341422],[127.14030906274971,37.50830492240419],[127.1403469186438,37.50775189241637],[127.14088459655267,37.50743792452785],[127.14151642544893,37.50670849463389],[127.1408126203716,37.505978955377806],[127.1410481986221,37.50540706893042],[127.14342383951683,37.5044139890134],[127.14454698377614,37.504216099175714],[127.14512586467477,37.50355683150505],[127.1454157804446,37.503614187938695],[127.1455022916355,37.503306066601425],[127.14595187887443,37.50322723988392],[127.1471940856378,37.50338422676781],[127.1476947224717,37.503212419079574],[127.14805362614719,37.5035777336111],[127.14860223589999,37.503723176012144],[127.1502043636312,37.50474239886564],[127.15210894176529,37.50297063808784],[127.15284403704051,37.50305558204682],[127.15323063218653,37.50267975773032],[127.1539538617883,37.50266418867125],[127.15643776012485,37.501859358087586],[127.15772904279892,37.50317931691395],[127.15886591110652,37.50239054683397],[127.15939670170378,37.50136298262588],[127.16050407337772,37.50109486684161],[127.1613900810599,37.50020141688951],[127.16135420264312,37.49953784582901],[127.16063275288452,37.49854969455107],[127.16056633133726,37.49755530183238],[127.15977920001816,37.49682401906157],[127.16002598579544,37.494374945662756],[127.15965173304025,37.49343475024808],[127.15865063801752,37.49242696640264],[127.15823517390034,37.49061228467597],[127.15718873321832,37.489919122542716],[127.15840609550887,37.48980334443048],[127.15142829255599,37.486030594134306],[127.1495711352276,37.4848469590892],[127.14792490770323,37.48249945191027],[127.14774725795347,37.48191585610846],[127.1472905665349,37.47723684511509],[127.14437047295381,37.477331142858446],[127.14426921582859,37.476394755167576],[127.14361885492181,37.47517065353558],[127.1435266191525,37.47393037587302],[127.13639698345617,37.4741704398153],[127.13285608115784,37.47462641595417],[127.13259259599015,37.472794943359126],[127.1328242684296,37.47120088518007],[127.13265678075994,37.47120748581604],[127.13198280876857,37.46979819860868],[127.13279963210289,37.468393622161344],[127.13050209802066,37.46759303740281],[127.12703330862406,37.468413676105854],[127.12520278866272,37.46962014000292],[127.12487811558755,37.469597673590194],[127.12519914448207,37.46783362506239],[127.1250477193639,37.46726502430975],[127.1242056922624,37.466520547707354],[127.11296762294505,37.48172207553445],[127.10700488481125,37.490289243338],[127.10351192179485,37.4927053585276],[127.10169948445045,37.493558231798],[127.11288817254739,37.49706110410412],[127.11876376205606,37.500304709169185],[127.12255082935702,37.503222907719596],[127.12799959231796,37.511796170586855],[127.11269479031341,37.51754044109397],[127.11910135215446,37.52795625008029],[127.13844489453885,37.519313010978216]]]}},{"type":"Feature","properties":{"zoneId":"Z000200027","zoneName":"강동송파3학교군","level":"middle","eduOffice":"서울특별시강동송파교육지원청"},"geometry":{"type":"Polygon","coordinates":[[[127.10256256109417,37.52397452142539],[127.11657713429473,37.52384388319902],[127.11269479031341,37.51754044109397],[127.12799959231796,37.511796170586855],[127.12255082935702,37.503222907719596],[127.11876376205606,37.500304709169185],[127.11288817254739,37.49706110410412],[127.10359280180467,37.49415245223272],[127.0977484744104,37.496583994247224],[127.08671984071684,37.5002727984087],[127.08469066371416,37.50069456996076],[127.08222403269366,37.501631174471136],[127.07660424877919,37.502804502687866],[127.07442378263814,37.503046965966],[127.07217212811304,37.50478692677794],[127.07117832151117,37.506771550132605],[127.06962266366797,37.51689854387575],[127.06960218682012,37.51845174679176],[127.07311329539036,37.518340261796766],[127.07823104332827,37.51726897344062],[127.08045200731478,37.517002815428384],[127.0845621304676,37.5169721303864],[127.08888274926366,37.517470542961746],[127.09406174644306,37.51901299568904],[127.10256256109417,37.52397452142539]]]}},{"type":"Feature","properties":{"zoneId":"Z000200032","zoneName":"강서양천4학교군","level":"middle","eduOffice":"서울특별시강서양천교육지원청"},"geometry":{"type":"Polygon","coordinates":[[[126.82970313240448,37.54769374185088],[126.83001603088566,37.546143843779255],[126.83041032203019,37.54570156115372],[126.82967430943877,37.54409521489117],[126.83026456369062,37.54260962636208],[126.83004673361599,37.54258067751812],[126.83000437399045,37.54163451209587],[126.83030932129897,37.541473983668034],[126.83054394526056,37.541744602189205],[126.83311043152153,37.54183829944242],[126.83374648880186,37.53981463231477],[126.83516609584863,37.537522984666374],[126.83511434377785,37.53670755113849],[126.83441122731443,37.53644661273605],[126.84047119886222,37.526490643270996],[126.84887722619742,37.52789070718538],[126.86396425841512,37.529792897844295],[126.86426051747222,37.52649488610215],[126.86542131820659,37.52251211552623],[126.85261690207766,37.52103512050755],[126.85587664545702,37.51395122700355],[126.85834503889599,37.50986390186693],[126.85564075529972,37.50910988255314],[126.85518389031469,37.509700102599616],[126.85279034548856,37.510662250500346],[126.85136389556577,37.51011832659867],[126.85009289932283,37.510131559957095],[126.84863771078433,37.50879744568245],[126.84731515912443,37.50943826386011],[126.84623446795567,37.50897651931506],[126.84629750206044,37.5082993770444],[126.84530476241626,37.507926190804476],[126.84489278000618,37.507347917716935],[126.84439521334352,37.50650924111999],[126.84470809221,37.50572913082911],[126.84357088776166,37.50578887522698],[126.8424503615768,37.50544913819577],[126.8407491453021,37.5060359966791],[126.84050784205807,37.505484438472],[126.84010596184055,37.505367103385716],[126.83997986472531,37.50487329213348],[126.83957995709528,37.50445756505373],[126.83845866872002,37.50438214021027],[126.8381755102753,37.5037961915852],[126.83750200216254,37.50324150596752],[126.8368983292663,37.50328409883476],[126.83645409380249,37.503029212107585],[126.83530430616513,37.50281649304857],[126.83399213586715,37.50334776277741],[126.8336485957843,37.503835887074736],[126.83306866479344,37.50397958109327],[126.83299824356328,37.50416391537712],[126.83202215243232,37.504601034053486],[126.83121538083684,37.505822977590185],[126.83056360429273,37.50624343153852],[126.83057154126007,37.50681507055691],[126.83111271276199,37.5079524962791],[126.82817789329712,37.50870791087827],[126.82705555234953,37.50839654934296],[126.82680964867644,37.508555320738274],[126.82698823687687,37.50850309177025],[126.8270491335522,37.5092158154079],[126.82641627745419,37.50944913723467],[126.82707457861008,37.51035955954672],[126.82405988348836,37.51048120849779],[126.82385642479449,37.51087507983598],[126.82440784674968,37.513176545790955],[126.82425545859105,37.5144675608357],[126.82340103154635,37.51495337214803],[126.82310427799585,37.51622023693171],[126.82449591642452,37.51771572085524],[126.82561710860833,37.52007997492597],[126.82548008239091,37.521752520288885],[126.8256604755485,37.52223511092042],[126.82516257411984,37.52305510986208],[126.82582051831963,37.523708194426106],[126.82650665267239,37.52493231182329],[126.82795875410795,37.52568819016785],[126.82825836117978,37.526299899603025],[126.82883712535755,37.52651585920399],[126.82842748522067,37.52670277574107],[126.82793890018237,37.52800314626438],[126.82787477634619,37.52836486409563],[126.82821369715215,37.529029276134764],[126.82706947779141,37.52970868878658],[126.82531231188482,37.52995891807416],[126.82473522932061,37.53060029255002],[126.82457856294745,37.53121695863251],[126.82343045010533,37.53261656325663],[126.823552528165,37.53376326002707],[126.82270258775164,37.53375465112656],[126.82262267492855,37.534201089154756],[126.82186772667433,37.53490299658529],[126.82243375311886,37.53654309423613],[126.82232154900348,37.53792397360019],[126.82159029087799,37.539711897516696],[126.82204884604455,37.54065024089713],[126.82386220163578,37.54127117086718],[126.8244821836388,37.54127279497371],[126.8253223205963,37.54156057631889],[126.82527435785094,37.541982322294395],[126.82600689436018,37.54286527607096],[126.82608112575652,37.543225746966954],[126.82567366394808,37.544221266499804],[126.82698732764794,37.54601776341888],[126.82705326109507,37.54659759453936],[126.82742701313111,37.54697712991038],[126.82749557940184,37.547652774843996],[126.82785782064619,37.54752870089956],[126.82970313240448,37.54769374185088]]]}},{"type":"Feature","properties":{"zoneId":"Z000200033","zoneName":"강남서초1학교군","level":"middle","eduOffice":"서울특별시강남서초교육지원청"},"geometry":{"type":"Polygon","coordinates":[[[127.03967943101428,37.535840135693185],[127.04601007783974,37.53426061558453],[127.05512677434739,37.52866757608982],[127.06027843597091,37.52704534986981],[127.06545601091386,37.52507028063628],[127.06646362529943,37.524960204694885],[127.06750087583919,37.524583743550586],[127.06767135688244,37.519868353595015],[127.06886835396567,37.51029993459513],[127.06650401540348,37.509888097793635],[127.03693119702594,37.50081420047097],[127.04088139149724,37.49240067133347],[127.03161130572474,37.48955489023305],[127.02051515473283,37.512799016738775],[127.01782217812223,37.521811965302284],[127.01522127649477,37.52485396507165],[127.01318735559148,37.52258312658629],[127.00857798664103,37.52559503121994],[127.01501965222211,37.53213231013509],[127.01774706968581,37.53424845528871],[127.02117563515772,37.53582129348105],[127.03967943101428,37.535840135693185]]]}},{"type":"Feature","properties":{"zoneId":"Z000200034","zoneName":"강남서초2학교군","level":"middle","eduOffice":"서울특별시강남서초교육지원청"},"geometry":{"type":"Polygon","coordinates":[[[127.11048067204901,37.48547044533023],[127.11296762294505,37.48172207553445],[127.1242056922624,37.466520547707354],[127.12185907967452,37.465138847266914],[127.12143908965197,37.464372295822365],[127.12074547730546,37.463891906303395],[127.11747457130893,37.46220060728742],[127.11698901822123,37.46148450463923],[127.11689581616595,37.45864056593068],[127.11549579062631,37.458697913337616],[127.11514824883439,37.459060055624974],[127.11395508712484,37.459516763786475],[127.11327083720714,37.46005491480029],[127.1132331353633,37.46035340927038],[127.1127627336152,37.46053039428583],[127.11329160028554,37.460836803671306],[127.11333364870899,37.461087641031625],[127.11182005573983,37.46164462143274],[127.10989082070914,37.4619414511874],[127.10945897334658,37.46187099823139],[127.10815327161608,37.46227442817642],[127.10730150866624,37.46218086874109],[127.10667186190419,37.46241090658169],[127.1056079764245,37.46217843528118],[127.10434095289283,37.46217475118339],[127.10478003190812,37.46116018043599],[127.10402313902458,37.46055744336467],[127.10394137957064,37.46005098628993],[127.10344257802724,37.45975186273679],[127.10269163264725,37.459724325006746],[127.10263389410035,37.45986739999125],[127.10138091613737,37.45897281257581],[127.10105925010457,37.45798986223022],[127.09973849909288,37.45735463176909],[127.09889292063578,37.45611617373417],[127.09823718355959,37.45637124313839],[127.09636504102082,37.45634685698836],[127.09576897044884,37.45651975926786],[127.0952300630188,37.456396179395554],[127.09546427427443,37.457459451745684],[127.09493149190766,37.45846404463328],[127.09520342762542,37.459439059721795],[127.09510458168309,37.459770841463275],[127.09565805257273,37.460255061672875],[127.09569752259233,37.46099303407892],[127.09467309630269,37.46091877429623],[127.09334336267938,37.46124810491821],[127.09209661456934,37.46227438393366],[127.09201315599799,37.464794592235464],[127.09159361776013,37.46556849569714],[127.09044116147497,37.46693225437056],[127.08965878802927,37.46729346755828],[127.08903568089893,37.46805631454693],[127.08846312813762,37.467989089466776],[127.08812541307775,37.46825721409451],[127.08757307833226,37.46962232239916],[127.08718116357764,37.46981231454913],[127.08656975693994,37.47068005144272],[127.08587766483332,37.47099337642627],[127.08502957105661,37.47110624301498],[127.08412971606555,37.4727871287017],[127.08450818540814,37.47403289770587],[127.08446055257119,37.475143865977834],[127.08493925529645,37.47566072218008],[127.08447848254932,37.47579663823338],[127.07899331991283,37.474916046520995],[127.07852962323742,37.475096415190635],[127.07796313709004,37.47485444933801],[127.07692397701447,37.475242521349735],[127.07650553062233,37.4744935673705],[127.07531367599567,37.47342846896984],[127.07422639995472,37.47291693997943],[127.07383882472607,37.47290207647323],[127.07268846845591,37.47191991739097],[127.07193368634039,37.47184037858688],[127.06990874867469,37.47086363733336],[127.06854734388378,37.470957642651655],[127.06783613293494,37.47038465544491],[127.06644253235588,37.47010208125861],[127.06559636116766,37.46950053838708],[127.06379916493061,37.46897225068449],[127.06322211122102,37.46900520444998],[127.062597057112,37.46929622128875],[127.06160907282306,37.468919881987674],[127.05906598670575,37.46923704965421],[127.05867485506799,37.46894811557942],[127.05720325312615,37.469070660990496],[127.05649158104775,37.46852573326016],[127.05602192778287,37.46849651542176],[127.05502433904934,37.46890854066379],[127.05419328602005,37.46817411074512],[127.0532109249744,37.46820319671818],[127.05072761353692,37.46727940290774],[127.05107437138068,37.4686118865538],[127.05101490388952,37.46934979861977],[127.05042474431232,37.469769668826125],[127.04885926397611,37.46989306756857],[127.04866922484523,37.47005974285893],[127.05118152443507,37.47178899633897],[127.05090016471918,37.471810378112544],[127.04519037502722,37.47735541371473],[127.0438890047326,37.4805605708047],[127.04160793182227,37.48524233981272],[127.04175003584885,37.48543709488671],[127.03408716446795,37.48436905892706],[127.03161130572474,37.48955489023305],[127.04088139149724,37.49240067133347],[127.03693119702594,37.50081420047097],[127.06650401540348,37.509888097793635],[127.06886897502017,37.51030005136361],[127.06981487554245,37.50273869679148],[127.07698705645097,37.50206742230687],[127.08421169253087,37.49965072228192],[127.09479448554015,37.49668264519841],[127.09713768697893,37.49583462648749],[127.0978025151837,37.49547750646625],[127.09740206247086,37.49519053336782],[127.09976240172416,37.49450884079221],[127.10330729496309,37.49282041150761],[127.10700488481125,37.490289243338],[127.11048067204901,37.48547044533023]]]}},{"type":"Feature","properties":{"zoneId":"Z000200035","zoneName":"강남서초3학교군","level":"middle","eduOffice":"서울특별시강남서초교육지원청"},"geometry":{"type":"Polygon","coordinates":[[[127.01269290771481,37.52290347818805],[127.01318735559148,37.52258312658629],[127.01522127649477,37.52485396507165],[127.01782217812223,37.521811965302284],[127.02051515473283,37.512799016738775],[127.03408716446795,37.48436905892706],[127.04175003584885,37.48543709488671],[127.04160793182227,37.48524233981272],[127.0438890047326,37.4805605708047],[127.04400476848956,37.479941992224504],[127.04062118485541,37.475879099927866],[127.03739400466225,37.47400420682079],[127.0340662994474,37.47306251139693],[127.03331194842039,37.4726503016479],[127.03092209139788,37.47041021212759],[127.02896793169035,37.467720645820776],[127.02992821313134,37.46535158857692],[127.02952694163321,37.46537456980589],[127.02960592510009,37.46327535712061],[127.02804287939342,37.46124519280188],[127.02846046697594,37.46012516195215],[127.02838903371475,37.45995547528692],[127.02743396660757,37.45999214500123],[127.02711439261492,37.45974036150927],[127.02657192718473,37.45964166440506],[127.0264010612926,37.459454522804364],[127.02634654418345,37.45810445077897],[127.02568711039574,37.45767848729996],[127.02279255551788,37.4572504260577],[127.02169512806832,37.45631501650706],[127.02036554918973,37.456158162425794],[127.01969173182361,37.45578660251602],[127.01906026720953,37.45574891846669],[127.01754502925942,37.45613508036057],[127.01694602143121,37.45596962648473],[127.01628763362886,37.455229454063414],[127.01506480768369,37.45483197760723],[127.01450941623871,37.45486109756032],[127.01338647493512,37.45534771403041],[127.01237226125717,37.45554862790467],[127.01082303257157,37.45542300033446],[127.01058400475026,37.456168912881],[127.0087105232222,37.45776493951348],[127.00821375045243,37.459099851200406],[127.00704062214915,37.46021554681837],[127.00576914739028,37.46254826379043],[127.00496852356144,37.46318691210093],[127.00446945706263,37.46407321217444],[127.00490518768666,37.46584259493303],[127.00448856262335,37.466328312451346],[127.0045243224997,37.466797690188564],[127.00367506732282,37.46772033703002],[127.00273461024986,37.467124597774564],[127.00196246187896,37.467087561739866],[127.00148568632103,37.46732306777956],[127.00047661841526,37.467062988479704],[126.99877922977906,37.46723399865516],[126.99780163001549,37.46702248836245],[126.99742651079247,37.46724211487061],[126.996751665535,37.467072401807414],[126.9962307711097,37.46660838900142],[126.99664298329822,37.46542752518164],[126.99661897848787,37.4647784646734],[126.9971933507097,37.464184188707016],[126.99737052662601,37.463687434431165],[126.99698467154906,37.463158909762264],[126.99676835020146,37.46187334663544],[126.99428960705046,37.46142143949214],[126.99335413485711,37.46149586463537],[126.99265496054853,37.46034386306111],[126.99169819304728,37.46051899433069],[126.9913317144455,37.46013590268565],[126.98999425977065,37.45946297331151],[126.98949879499008,37.45852266262436],[126.98864554475233,37.45814478017748],[126.98787321719364,37.45927233852985],[126.98754733125246,37.460148445376426],[126.98750359455451,37.4606708620336],[126.98833920170789,37.463999357402635],[126.98793469585695,37.465939039529495],[126.9871053995655,37.467228331452105],[126.9873028065131,37.46761444509513],[126.98492149010157,37.469633300053644],[126.98321488366383,37.471570837438406],[126.98215741748197,37.47372315464574],[126.9817176035345,37.47568023066246],[126.98218833519874,37.486727993634254],[126.98263865582327,37.49008705230846],[126.98292532898218,37.49699388026611],[126.98538482322364,37.499860824043594],[126.98342619020984,37.50124828776963],[126.98081992343229,37.502568606614155],[126.9803239010391,37.504119980996286],[126.98040674682095,37.506544600920975],[126.98554048905785,37.506543441568915],[126.99068376306172,37.51309568095231],[127.0007917077576,37.51950085344864],[127.0064561756982,37.523440075806135],[127.00857798664103,37.52559503121994],[127.01269290771481,37.52290347818805]]]}},{"type":"Feature","properties":{"zoneId":"Z000200036","zoneName":"강남서초4학교군","level":"middle","eduOffice":"서울특별시강남서초교육지원청"},"geometry":{"type":"Polygon","coordinates":[[[127.04989860567541,37.469803735935436],[127.05042474431232,37.469769668826125],[127.05101490388952,37.46934979861977],[127.05107437138068,37.4686118865538],[127.05072761353692,37.46727940290774],[127.0532109249744,37.46820319671818],[127.05419328602005,37.46817411074512],[127.05502433904934,37.46890854066379],[127.05602192778287,37.46849651542176],[127.05649158104775,37.46852573326016],[127.05720325312615,37.469070660990496],[127.05867485506799,37.46894811557942],[127.05906598670575,37.46923704965421],[127.06160907282306,37.468919881987674],[127.062597057112,37.46929622128875],[127.06322211122102,37.46900520444998],[127.06379916493061,37.46897225068449],[127.06559636116766,37.46950053838708],[127.06644253235588,37.47010208125861],[127.06783613293494,37.47038465544491],[127.06854734388378,37.470957642651655],[127.06990874867469,37.47086363733336],[127.07193368634039,37.47184037858688],[127.07268846845591,37.47191991739097],[127.07383882472607,37.47290207647323],[127.07422639995472,37.47291693997943],[127.07531367599567,37.47342846896984],[127.07650553062233,37.4744935673705],[127.07692397701447,37.475242521349735],[127.07796313709004,37.47485444933801],[127.07852962323742,37.475096415190635],[127.07899331991283,37.474916046520995],[127.08447848254932,37.47579663823338],[127.08493925529645,37.47566072218008],[127.08446055257119,37.475143865977834],[127.08450818540814,37.47403289770587],[127.08412971606555,37.4727871287017],[127.08502957105661,37.47110624301498],[127.08587766483332,37.47099337642627],[127.08656975693994,37.47068005144272],[127.08718116357764,37.46981231454913],[127.08757307833226,37.46962232239916],[127.08812541307775,37.46825721409451],[127.08846312813762,37.467989089466776],[127.08903568089893,37.46805631454693],[127.08965878802927,37.46729346755828],[127.09044116147497,37.46693225437056],[127.09159361776013,37.46556849569714],[127.09201315599799,37.464794592235464],[127.09209661456934,37.46227438393366],[127.09334336267938,37.46124810491821],[127.09467309630269,37.46091877429623],[127.09569752259233,37.46099303407892],[127.09565805257273,37.460255061672875],[127.09510458168309,37.459770841463275],[127.09520342762542,37.459439059721795],[127.09493149190766,37.45846404463328],[127.09546427427443,37.457459451745684],[127.09521358415061,37.4563213023186],[127.09431201193829,37.45622530155154],[127.09354013828762,37.4558884515811],[127.09272523417098,37.45363403640016],[127.09188198043366,37.45346687233093],[127.09112856477455,37.45295584428537],[127.09030258822153,37.45126679660882],[127.08961928448286,37.45088690980573],[127.08954252187188,37.45016620682508],[127.0888208588879,37.44974970106448],[127.08895926980354,37.44946193757837],[127.0884318624998,37.44899483976511],[127.08832654376764,37.448627756351236],[127.08864210753339,37.447596963970256],[127.08836908388662,37.44724045342164],[127.08838630065355,37.4463977212774],[127.08785477980206,37.44489432944462],[127.08642107539151,37.444262636517806],[127.08570278661841,37.44441715910828],[127.08386167536314,37.44392178656588],[127.08380480156167,37.443416694759925],[127.08243159371575,37.441579866225325],[127.08124989848962,37.44111890351987],[127.08017137742594,37.441051490821636],[127.07957511996234,37.44138694334173],[127.07908312827308,37.44129913987686],[127.07817868233208,37.44155201220702],[127.07774818263651,37.44186341748534],[127.07707772732105,37.441651272967775],[127.07601035245602,37.44213933391548],[127.07524263102515,37.441942160510735],[127.07475576339264,37.44221924045941],[127.07299309904465,37.442017587697435],[127.07213822274325,37.44226306782664],[127.07162566824695,37.441523977944975],[127.07221142214706,37.4393828476425],[127.07200755049058,37.438856771906906],[127.07375988666894,37.437789446035225],[127.07384319193626,37.43740779054474],[127.07302395116476,37.436406829700594],[127.07168847536343,37.43598105590971],[127.07127181456819,37.43560147386981],[127.07151954393642,37.43411691496335],[127.07057081254699,37.43241681900847],[127.07120647691542,37.43081771395367],[127.07090489523355,37.43019141120862],[127.06987340137125,37.430972228277504],[127.06961515283557,37.430611687511906],[127.06896391834321,37.43043242816026],[127.06827003363415,37.43067934727253],[127.06782966257707,37.43040658014624],[127.06670012823781,37.43012876370102],[127.06596108505171,37.42953284950993],[127.0656813250473,37.42898536908602],[127.06438538316623,37.42911343176316],[127.06331600993089,37.429751500365875],[127.06114480324115,37.42998541383527],[127.05996106663513,37.429568876489725],[127.0590570228104,37.429663626609305],[127.05806956474822,37.43001078380183],[127.05368412240169,37.42897461150865],[127.0523243451935,37.42829747447546],[127.0498650227938,37.430309650311955],[127.04736896245416,37.43070181543283],[127.04722440934592,37.432040340541995],[127.0465361680887,37.43265071331561],[127.04631136822432,37.433447199982936],[127.04462590474128,37.4340686781888],[127.044185450745,37.43505544902805],[127.04264596002568,37.43637230588092],[127.04144263225747,37.43710958186489],[127.04108999443365,37.43776904839117],[127.04005255497022,37.43823701533099],[127.03706748574852,37.43827496411031],[127.03632245722649,37.43877828189775],[127.03557349284945,37.43900401221484],[127.03517155149439,37.4409419261913],[127.03665417499255,37.442080153266154],[127.03697445616126,37.442896964045126],[127.0374826313988,37.443266681360555],[127.03823011849559,37.44518026453522],[127.03820535114987,37.445858901273695],[127.03725375161964,37.446448452184],[127.03753123788118,37.44736148461336],[127.03715889823553,37.44801042069497],[127.03737452587694,37.44856431231848],[127.03781168902029,37.44892239207067],[127.03774411952226,37.44941881192915],[127.0357762136668,37.45219594967492],[127.03537100584981,37.45222684485327],[127.034754469636,37.45261755218171],[127.034823399965,37.453106203656326],[127.03546883818522,37.45343737374245],[127.03558793641672,37.454087406311764],[127.03626714256588,37.454262075661205],[127.0364246580692,37.454650587290644],[127.03712746701791,37.45520759465327],[127.03706714983949,37.45547421249285],[127.03674029505054,37.4564438097471],[127.03576298235683,37.45748138774552],[127.03496823419171,37.45798893167912],[127.03492394437333,37.46017536473991],[127.03385698686048,37.45994020290683],[127.03339970969746,37.46056969092566],[127.03354378197623,37.46174254522408],[127.03432502326618,37.46323704633337],[127.03436613591956,37.464061570860075],[127.03314030838975,37.46501738422725],[127.03192156550334,37.46551877036805],[127.03119534995399,37.465626173849195],[127.02992821313134,37.46535158857692],[127.02896793169035,37.467720645820776],[127.03092209139788,37.47041021212759],[127.03331194842039,37.4726503016479],[127.0340662994474,37.47306251139693],[127.03739400466225,37.47400420682079],[127.04062118485541,37.475879099927866],[127.04400476848956,37.479941992224504],[127.0452679823316,37.477252941027004],[127.05090016471918,37.471810378112544],[127.05118152443507,37.47178899633897],[127.04866922484523,37.47005974285893],[127.04885926397611,37.46989306756857],[127.04989860567541,37.469803735935436]]]}},{"type":"Feature","properties":{"zoneId":"Z000200025","zoneName":"강동송파1학교군","level":"middle","eduOffice":"서울특별시강동송파교육지원청"},"geometry":{"type":"Polygon","coordinates":[[[127.14854670419642,37.545752789700785],[127.14843793308414,37.54536659640151],[127.14871249811563,37.54529914998181],[127.14872742138603,37.54501606631182],[127.14937390361122,37.54561547199907],[127.15042939022797,37.54567207079813],[127.15093455602155,37.544797227973476],[127.15184265121167,37.54497909257835],[127.15225929775241,37.544043134041516],[127.15348170503832,37.543687048235945],[127.15381103047845,37.54208755423106],[127.15598087414209,37.54284592943665],[127.15660234698292,37.54346182424995],[127.15754743832852,37.54316038860498],[127.15827973884485,37.54268173766154],[127.1593583559639,37.54248704798807],[127.16009567755768,37.54151492173549],[127.1597231806637,37.54135689720623],[127.15957271304053,37.54098717029569],[127.15765116613295,37.539270199878025],[127.15717439718006,37.53844135112369],[127.15694054007774,37.53837099226166],[127.15678861209587,37.537658566591006],[127.15603251196553,37.53734272975139],[127.15452583095758,37.53486927714249],[127.15402113310337,37.53451491183406],[127.15356647295127,37.533665439199325],[127.15393333961038,37.53191990426108],[127.1533765549933,37.53133090226627],[127.15353887753946,37.53043710781983],[127.1531286694742,37.52994825108546],[127.15329000758098,37.52946898689696],[127.15316359113969,37.529109092970245],[127.15040174560225,37.52637283336517],[127.14986847201507,37.52620767206893],[127.14945502433844,37.52575092609093],[127.14947601623759,37.52502053694193],[127.14859536018629,37.523561079553524],[127.14859817530844,37.52319176800382],[127.14817890963968,37.522922269926404],[127.14779720524002,37.522149861563626],[127.14566554581607,37.52193224186193],[127.14478563295809,37.519624577744395],[127.14482700447907,37.517973733667304],[127.14509170813933,37.516835336056126],[127.14382786497254,37.5170328318898],[127.13833683728633,37.5193402388423],[127.11910135215446,37.52795625008029],[127.11657713429473,37.52384388319902],[127.10256256109417,37.52397452142539],[127.10482776521829,37.52580260088375],[127.10801573571264,37.5289064770313],[127.10910288734384,37.53071657109932],[127.10999960725854,37.53386425398708],[127.11080604386515,37.535033748259266],[127.11818851173244,37.541280853692456],[127.11895182737867,37.541121223058184],[127.11884820992114,37.540994349550914],[127.12025658108446,37.54032929801947],[127.12184908331805,37.53928930145393],[127.12343025396498,37.538618732014115],[127.1342707284875,37.53530270496544],[127.13694003045325,37.540702988782506],[127.13738011388023,37.54110673073505],[127.13790411057688,37.5411599528669],[127.14117032023351,37.54097784692308],[127.14273642288626,37.545075072854644],[127.14525498405476,37.5444763064467],[127.14516027510976,37.54496700399792],[127.14608031728865,37.54532188092693],[127.14618403197122,37.54515891873147],[127.14678976126335,37.54547663780943],[127.1471303694597,37.545414347751766],[127.14759797022792,37.54597787927343],[127.14854670419642,37.545752789700785]]]}},{"type":"Feature","properties":{"zoneId":"Z000200030","zoneName":"강서양천2학교군","level":"middle","eduOffice":"서울특별시강서양천교육지원청"},"geometry":{"type":"Polygon","coordinates":[[[126.83023104710999,37.55913528535747],[126.8373299028414,37.55843147589249],[126.83746246212566,37.55864048415094],[126.84749905708149,37.55758904069154],[126.85984885960289,37.55329448658457],[126.86446668819568,37.55123681313314],[126.86420636786409,37.55114711705443],[126.86211153721271,37.54436277898606],[126.86227714296491,37.54366212679305],[126.86378143925033,37.540686315007264],[126.86344064915616,37.53600062980043],[126.86396597765345,37.529793121470824],[126.84887722619742,37.52789070718538],[126.84047119886222,37.526490643270996],[126.83441122731443,37.53644661273605],[126.83511434377785,37.53670755113849],[126.83516609584863,37.537522984666374],[126.83374648880186,37.53981463231477],[126.83311043152153,37.54183829944242],[126.83054394526056,37.541744602189205],[126.83030932129897,37.541473983668034],[126.83000437399045,37.54163451209587],[126.83004673361599,37.54258067751812],[126.83026456369062,37.54260962636208],[126.82967430943877,37.54409521489117],[126.83041032203019,37.54570156115372],[126.83001603088566,37.546143843779255],[126.82970313240448,37.54769374185088],[126.82785782064619,37.54752870089956],[126.82749557940184,37.547652774843996],[126.82742701313111,37.54697712991038],[126.82705326109507,37.54659759453936],[126.82698732764794,37.54601776341888],[126.82567366394808,37.544221266499804],[126.82608112575652,37.543225746966954],[126.82600689436018,37.54286527607096],[126.82527435785094,37.541982322294395],[126.8253223205963,37.54156057631889],[126.8244821836388,37.54127279497371],[126.82386220163578,37.54127117086718],[126.82211485496214,37.540639717574166],[126.81979100427972,37.54075147240146],[126.81631213274935,37.54055179561624],[126.81293303146529,37.54077586997392],[126.81352122016372,37.54278110747001],[126.81335762281603,37.54334363236525],[126.81457075162614,37.543749491717485],[126.81528464200545,37.54477905491127],[126.81511165261074,37.544959331575626],[126.81536556292995,37.545596651544386],[126.8148879639438,37.54581753127068],[126.8144404337271,37.546334857566464],[126.8143604738048,37.54679724467838],[126.81375233203595,37.54760137620513],[126.81384357227621,37.5489057500182],[126.81284867950733,37.549774058728076],[126.81590379903994,37.55208951007839],[126.816092794953,37.55194556759744],[126.82313430671104,37.557230739659815],[126.82350025328482,37.55980536455511],[126.83023104710999,37.55913528535747]]]}},{"type":"Feature","properties":{"zoneId":"Z000200031","zoneName":"강서양천3학교군","level":"middle","eduOffice":"서울특별시강서양천교육지원청"},"geometry":{"type":"Polygon","coordinates":[[[126.87398545519827,37.546938074606935],[126.8779573119578,37.54710015368029],[126.88025444162572,37.54773701200065],[126.8799223319198,37.548145178351355],[126.88081096112808,37.548076964893916],[126.88212772482746,37.54672455643417],[126.8827458104388,37.54575464858868],[126.88409184324071,37.54463679291583],[126.88424521892334,37.5435650447927],[126.88442638047763,37.543376016053806],[126.88508648252602,37.54331359934783],[126.8855133662463,37.54155399500959],[126.88653138370542,37.5393619124298],[126.88826018392291,37.53671466637665],[126.889995689138,37.53470795183334],[126.89003624290737,37.53370985948777],[126.88979689733377,37.53339561245782],[126.88869284097241,37.53280505052392],[126.88853023194717,37.532554869462025],[126.88862633408405,37.532124323225766],[126.8890862790522,37.5319086582562],[126.89028859791728,37.531868693875445],[126.89068400741019,37.53165620450083],[126.88953991712926,37.52999617190098],[126.88846133952278,37.53041241176338],[126.88715357668936,37.530179994168755],[126.88600268645796,37.529445969518534],[126.88417697360343,37.52866847794254],[126.88391013788937,37.52839002099556],[126.88374682645673,37.52758685730493],[126.8834301210368,37.52732750541799],[126.88272654351083,37.527248800170774],[126.88134992465613,37.527777021215414],[126.88090548171937,37.527706740862435],[126.88060298700871,37.527401228422306],[126.88117317986774,37.52652144213171],[126.8809412442993,37.52591183412969],[126.88054450334708,37.52574502391482],[126.87928459401611,37.525715851466394],[126.87875353135425,37.52535495544625],[126.87861406246877,37.52468351721048],[126.87942883826432,37.52050487312957],[126.87910370597666,37.520023349576235],[126.87835110353348,37.519485918068895],[126.87819549639562,37.51877931214003],[126.87862001074458,37.51804263157763],[126.87932463453453,37.517853586169345],[126.87947796746018,37.517661499346275],[126.8785405429994,37.51767053661326],[126.87847444167654,37.517354310300526],[126.87895100737768,37.516985938062795],[126.8783371363008,37.51637388307262],[126.87731824140425,37.51608927268698],[126.87776560015683,37.515604991384656],[126.8775056613562,37.51472770713729],[126.87789120323961,37.51338061604677],[126.87771394233717,37.5133292178202],[126.87724041330222,37.51377254114169],[126.87662739794061,37.51371778096733],[126.87609232015791,37.51247025355071],[126.87557150767428,37.51221845758539],[126.87509611035188,37.512417971448286],[126.87380635241792,37.511086441508105],[126.87418018456356,37.510676714138036],[126.87467370580478,37.51071562516618],[126.87490373031115,37.51093571575415],[126.87484187379371,37.51153787579336],[126.8750723457565,37.51182247476411],[126.87568748298837,37.511377553949224],[126.87655806295808,37.511172987624775],[126.8768388144788,37.51087221744686],[126.87651367944319,37.51065703900836],[126.87609742659241,37.51107808373583],[126.87559318517083,37.51115448324792],[126.87517728611137,37.5105595711145],[126.87561126059109,37.509755264738445],[126.87543800414764,37.50947820180139],[126.875024294771,37.509330538936645],[126.87422285664258,37.50949331243175],[126.87379926304087,37.50906021826348],[126.87390057418996,37.50869710103305],[126.87480155358551,37.50828460297386],[126.87503818289488,37.50773398669253],[126.87420885351439,37.50719409316738],[126.8742935589535,37.50678533813623],[126.8746866429773,37.50654645619549],[126.87417108613548,37.505311903884476],[126.87370532927933,37.50475644105341],[126.87359617510721,37.50356642116905],[126.87186740200845,37.50414584198449],[126.87145149452135,37.50509169386644],[126.87101488194722,37.50526960875686],[126.87063055195523,37.505759100759974],[126.87027489935564,37.505833904063266],[126.86909763170644,37.504822038464845],[126.8680131710692,37.504883792156434],[126.86716839861612,37.505295941494076],[126.86582622373692,37.50557723015337],[126.86493174458917,37.50553259494245],[126.86471461591638,37.50481180222007],[126.86351239463355,37.50501499147545],[126.86280669048806,37.50579542157052],[126.86258356382622,37.50677873295435],[126.86406718631501,37.50833798866952],[126.86026011585636,37.50670896437307],[126.85587664545702,37.51395122700355],[126.85261690207766,37.52103512050755],[126.86542131820659,37.52251211552623],[126.8642214511299,37.52683968145719],[126.86344064915616,37.53600062980043],[126.86378143925033,37.540686315007264],[126.86212032627475,37.544151928527995],[126.86420636786409,37.55114711705443],[126.86446668819568,37.55123681313314],[126.86611412360048,37.550444005443005],[126.87065326157962,37.54770792991221],[126.87238177342181,37.54712626292689],[126.87398545519827,37.546938074606935]]]}},{"type":"Feature","properties":{"zoneId":"Z000200029","zoneName":"강서양천1학교군","level":"middle","eduOffice":"서울특별시강서양천교육지원청"},"geometry":{"type":"Polygon","coordinates":[[[126.80900921806128,37.60065905017856],[126.81138361839334,37.59896195166624],[126.81395740086406,37.59762088593704],[126.81656541072154,37.595690095330546],[126.81752523683213,37.59533796966537],[126.8193022529399,37.59284975025819],[126.82781148526804,37.587484831987766],[126.83175937193825,37.58584318029382],[126.83714886892459,37.582563338702435],[126.83809766079986,37.58179290761276],[126.8432399480394,37.57887903742551],[126.84838100032738,37.57515714217352],[126.8527840067634,37.572419968396034],[126.85607022956366,37.56944306580388],[126.86382514367506,37.564489886579345],[126.86629113267769,37.56305257156581],[126.86906022188936,37.56196691881288],[126.88046370504185,37.5562694214198],[126.87923701635401,37.55474689176672],[126.87921716984226,37.55315128083493],[126.87824427355203,37.5535813296027],[126.87792833635767,37.55333660423868],[126.87804773439474,37.5517008746402],[126.88075254847568,37.548121391806575],[126.8799223319198,37.548145178351355],[126.88025444162572,37.54773701200065],[126.8779573119578,37.54710015368029],[126.874233842181,37.546936813128625],[126.87254331250948,37.547091750768075],[126.87065326157962,37.54770792991221],[126.86611412360048,37.550444005443005],[126.86045591991248,37.553042935352906],[126.8475560146235,37.55757442980423],[126.83746246212566,37.55864048415094],[126.8373299028414,37.55843147589249],[126.82351268116128,37.559809852072476],[126.82313430671104,37.557230739659815],[126.816092794953,37.55194556759744],[126.81590379903994,37.55208951007839],[126.81284867950733,37.549774058728076],[126.81384357227621,37.5489057500182],[126.81375233203595,37.54760137620513],[126.8143604738048,37.54679724467838],[126.8144404337271,37.546334857566464],[126.8148879639438,37.54581753127068],[126.81536556292995,37.545596651544386],[126.81511165261074,37.544959331575626],[126.81528464200545,37.54477905491127],[126.81457075162614,37.543749491717485],[126.81335762281603,37.54334363236525],[126.81352122016372,37.54278110747001],[126.81293303146529,37.54077586997392],[126.81352679470713,37.5406146383314],[126.81233073133333,37.54076303194513],[126.81058285201041,37.54151071715725],[126.80744812053105,37.54354562998513],[126.80680612579994,37.54360338052765],[126.80185410521219,37.5427300346952],[126.7996558968034,37.54139817495718],[126.80054442355443,37.5414793020959],[126.80081616856467,37.54082805060094],[126.79927151321496,37.5406433883247],[126.79937604533507,37.54020968472746],[126.7988597870539,37.54030214275256],[126.79873662076014,37.539400429754686],[126.79923638154054,37.53928982331509],[126.79941638872236,37.53902922160774],[126.79943743209684,37.538896560058376],[126.79913848211902,37.53889786115249],[126.79945883637417,37.53773596575634],[126.79908212853887,37.537573358263785],[126.79824943809308,37.53771375403602],[126.79834721832195,37.53726365403364],[126.79604942577785,37.536766140740404],[126.79442219222977,37.53583181593545],[126.79396312276745,37.53736031575394],[126.79421985969412,37.538300728634525],[126.79393065834837,37.539418781738085],[126.79325268798043,37.539703193432636],[126.79438098904645,37.540248566451695],[126.79494113245072,37.541372297972245],[126.79180369518069,37.5419062375559],[126.79152296837852,37.54283664269774],[126.79181418738311,37.54374695898821],[126.7907596877379,37.543839812575186],[126.78938520883956,37.54446297237511],[126.78817985771909,37.54517631482355],[126.7872528500512,37.54607501783585],[126.78339251502588,37.54601130255185],[126.78202237653849,37.54632745140532],[126.78182653090073,37.54606600770847],[126.77874664642765,37.546725605849744],[126.77756126525689,37.54672069744074],[126.776734768339,37.54821079055255],[126.77529308054451,37.548971615536765],[126.77258014827001,37.5487532403477],[126.77195679255766,37.54837756130914],[126.77149158845795,37.548358323068996],[126.77134038988439,37.548631720777166],[126.77098357303896,37.54874815344418],[126.77083344960333,37.549347405242536],[126.77025849302656,37.550024401468995],[126.769928003438,37.55019096852801],[126.76982014614197,37.550578685981236],[126.77027015602908,37.55109873636123],[126.76977825153479,37.55108661854551],[126.76932025468919,37.55158103661747],[126.76807504981294,37.551577537780965],[126.7680457671244,37.551797211634664],[126.76739691030974,37.55188576453218],[126.7677081471066,37.55283285212089],[126.76736064839301,37.5531165781944],[126.76762602925223,37.553539974254015],[126.76728536939069,37.553694809834006],[126.7676314766393,37.55410368048924],[126.76740328591958,37.55422872730584],[126.76672189342884,37.554068113993544],[126.76636174986983,37.553769936297336],[126.76620253745361,37.554241810584315],[126.76633631463903,37.55487079480114],[126.76478380863398,37.55507464119865],[126.76448367996818,37.55536939201429],[126.76671879631482,37.55631420917899],[126.76674848586606,37.55650684842799],[126.7662840801643,37.55691705972572],[126.76661883041963,37.55697431790822],[126.76735009667398,37.556619321856594],[126.76873533160192,37.55681661142548],[126.7689945828407,37.55709643745683],[126.76986702848427,37.55723048030218],[126.77243075398346,37.557012765734704],[126.77317881987675,37.55753262630872],[126.77177113628831,37.55863185713283],[126.77244585780694,37.55872269946873],[126.77274101594872,37.55940653320555],[126.77318565013927,37.559290466060055],[126.7736209499972,37.56005058544193],[126.77428874124197,37.559755927600385],[126.77417185526602,37.56016569652161],[126.77444812552365,37.56043619158587],[126.77480830378158,37.56045687669938],[126.77466722845088,37.56070795542467],[126.77493286710815,37.56090197781571],[126.77467906412203,37.56131932383394],[126.77545913736458,37.56143316314756],[126.77553452180501,37.561828336896696],[126.77575824640344,37.56194138819122],[126.77588609381026,37.56177044552113],[126.77610863133131,37.56186350082359],[126.77784184134703,37.5599330520642],[126.77793365487567,37.560292377682266],[126.77750925042746,37.5622823144921],[126.77694844275672,37.56222972122457],[126.77663197869884,37.56237412362652],[126.7767438064036,37.56324724047484],[126.77709654145859,37.563725180947834],[126.77594258094146,37.565205846131725],[126.77534262484237,37.56534350418684],[126.77557515324214,37.56559200008086],[126.77513178779834,37.56587947551267],[126.77477078267482,37.56771491874039],[126.7755303034829,37.568261086402096],[126.77541059676071,37.56733027433128],[126.77634838529826,37.567102304723825],[126.77672100877282,37.56605128584718],[126.77780817997824,37.56699390729221],[126.77900308607337,37.567154685421315],[126.77917031114355,37.56831671480936],[126.7803180667478,37.56750403677821],[126.78054714039348,37.56789939373538],[126.78047935810793,37.568294575230716],[126.78094056040918,37.56872389236337],[126.78162073518973,37.568896402598355],[126.78189113201215,37.5692309477405],[126.7811329917285,37.56961730175115],[126.78048939288254,37.57028511627478],[126.78053141926712,37.570477527722275],[126.78148096962721,37.57018387674341],[126.78239494100774,37.57030537187981],[126.78262958640741,37.57054805252084],[126.78135695960911,37.571335439518805],[126.78189278929007,37.571804518425274],[126.78214390171895,37.57317595159484],[126.78240951848039,37.573610217444816],[126.78525270694067,37.5748675320379],[126.78760896581694,37.575581750275035],[126.78804078199187,37.57616691400516],[126.78859253354197,37.57574421507465],[126.78920172303557,37.575581224626625],[126.7884699540745,37.57679834455603],[126.7893435486111,37.577726058756355],[126.78995693003172,37.57763921485639],[126.79001848896502,37.57735563240311],[126.79059344142064,37.57778687232403],[126.79082040091104,37.578990804383984],[126.79073399726869,37.58061054000967],[126.7912680976115,37.580926340973704],[126.79135519897,37.581422613679194],[126.79160872447237,37.581326031872685],[126.7923776209725,37.57972739926233],[126.79273892343274,37.5768415781645],[126.79322285440904,37.57689727746365],[126.79325069955347,37.57853298301238],[126.79306782110723,37.57863518291707],[126.7928356367464,37.58017188142124],[126.79330901211692,37.58025049569589],[126.79382206266148,37.58182777339911],[126.79391196246954,37.58296147744959],[126.79373148909114,37.583038591669805],[126.79344078885401,37.58451964001017],[126.79378304626934,37.584469281943946],[126.79422428696581,37.58407164423422],[126.79454062321525,37.58354794237],[126.79440910208963,37.5826852992347],[126.79469760983908,37.58262217691645],[126.7949280089631,37.583426141478185],[126.7949328338939,37.58520306143523],[126.79524396551545,37.585215436069575],[126.79521723750578,37.58534996991636],[126.79554008327322,37.585154577409575],[126.79572151990723,37.58312063411467],[126.79709711224803,37.58427318491817],[126.79629402967143,37.584903327566586],[126.79642864709072,37.5850308257763],[126.79668496439984,37.58490851103174],[126.7972272798285,37.58538555940013],[126.7975982888324,37.58640544642476],[126.79876788267984,37.588072867374066],[126.79913976648106,37.58819513730176],[126.80049774156308,37.5877939881539],[126.80073787617978,37.587834941988625],[126.80094007409258,37.58816611723141],[126.80077336874034,37.5890414723497],[126.80109838365183,37.588967135503566],[126.80122703364879,37.58934886518332],[126.80051999767981,37.59030889643158],[126.80008679670068,37.59035151469692],[126.79944937343667,37.59113484679913],[126.79880100447076,37.59132265590475],[126.7989924369123,37.592426127972935],[126.79961125137304,37.59244296283744],[126.80004954402784,37.59202840442842],[126.80028693500925,37.59204176618591],[126.80050123737558,37.59241322770456],[126.79865947112978,37.59366750733288],[126.79760789614734,37.59488230066074],[126.79708222544714,37.597738921002794],[126.79748369110982,37.597669509037175],[126.79753591518288,37.59778559295253],[126.79764205606554,37.59928281245116],[126.7980526856488,37.60020816067663],[126.79817371860882,37.60033647217772],[126.79853481878602,37.600086512271325],[126.7992181883116,37.60111930955306],[126.79996597981845,37.60149646122308],[126.79978561853815,37.60191201053924],[126.79994067496497,37.602544656983035],[126.80258112644661,37.60503274489592],[126.80589203105241,37.60258298982135],[126.80900921806128,37.60065905017856]]]}},{"type":"Feature","properties":{"zoneId":"Z000200026","zoneName":"강동송파2학교군","level":"middle","eduOffice":"서울특별시강동송파교육지원청"},"geometry":{"type":"Polygon","coordinates":[[[127.17662091124635,37.57900928975325],[127.17541518478653,37.57829901300683],[127.17532727043381,37.57723513198336],[127.17576369315432,37.575660862097365],[127.17568286234543,37.57489908067824],[127.17611944488296,37.57409134348507],[127.17772089217011,37.57219792682393],[127.17797261066833,37.57115280448351],[127.17913258405778,37.56912368956708],[127.17949625633011,37.56773055106391],[127.17958414364529,37.56549597735887],[127.18118545358588,37.563016961814455],[127.18199514147237,37.56099244104775],[127.18198396342743,37.55965589599868],[127.18155342205239,37.55755331163678],[127.18168353502293,37.555995807922216],[127.18139183481797,37.55492154422288],[127.1813400965399,37.55296534901876],[127.18170387382342,37.552507953713],[127.18293309444013,37.55175261860615],[127.18311907391876,37.55108138393857],[127.18284453761366,37.549429047962676],[127.18307600380399,37.548632441840404],[127.18267633997753,37.54787537773899],[127.18272442657236,37.546703736024085],[127.18282539886374,37.54634403204777],[127.18379492186506,37.545573876651204],[127.183538888591,37.54517038992656],[127.18284626801793,37.54557971294544],[127.1822021463427,37.545724859247485],[127.18169255061058,37.546444745296654],[127.17991025683015,37.54657443206679],[127.17829203827631,37.5463166621005],[127.17679313718484,37.54575437117237],[127.17663727991376,37.5453359241412],[127.17598110585124,37.54563651275716],[127.17571719032135,37.54520809016175],[127.17431442971412,37.545297707522536],[127.17413769238912,37.545712424705926],[127.17361518084114,37.545539744765655],[127.1721068149068,37.54553461873079],[127.16976335302743,37.54480507789659],[127.16882244898534,37.545148234935695],[127.16794903695984,37.54505992209085],[127.16697796910321,37.545202600989434],[127.16674621364733,37.54481831034733],[127.16689369733149,37.54427328362651],[127.1652984803086,37.54439883447426],[127.16516797901616,37.54463214680019],[127.16323436209431,37.545011533070834],[127.16009567755768,37.54151492173549],[127.1593583559639,37.54248704798807],[127.15827973884485,37.54268173766154],[127.15754743832852,37.54316038860498],[127.15660234698292,37.54346182424995],[127.15598087414209,37.54284592943665],[127.15381103047845,37.54208755423106],[127.15348170503832,37.543687048235945],[127.15225929775241,37.544043134041516],[127.15184265121167,37.54497909257835],[127.15093455602155,37.544797227973476],[127.15042939022797,37.54567207079813],[127.14937390361122,37.54561547199907],[127.14872742138603,37.54501606631182],[127.14871249811563,37.54529914998181],[127.14843793308414,37.54536659640151],[127.14854670419642,37.545752789700785],[127.14759797022792,37.54597787927343],[127.1471303694597,37.545414347751766],[127.14678976126335,37.54547663780943],[127.14618403197122,37.54515891873147],[127.14608031728865,37.54532188092693],[127.14516027510976,37.54496700399792],[127.14525498405476,37.5444763064467],[127.14273642288626,37.545075072854644],[127.14117032023351,37.54097784692308],[127.13790411057688,37.5411599528669],[127.13738011388023,37.54110673073505],[127.13694003045325,37.540702988782506],[127.1342707284875,37.53530270496544],[127.12343025396498,37.538618732014115],[127.12184908331805,37.53928930145393],[127.12025658108446,37.54032929801947],[127.11884820992114,37.540994349550914],[127.11895182737867,37.541121223058184],[127.11733433913616,37.54148856953935],[127.1165262109971,37.541958444378906],[127.11304671396864,37.54298073775847],[127.1131048215269,37.543171308293935],[127.10914248353158,37.54316625408343],[127.11146538655039,37.546942925450175],[127.1115538211829,37.55050707380569],[127.11425811796079,37.55436632061839],[127.11564535571993,37.55769987559845],[127.11733898823849,37.55946361568207],[127.12009622078864,37.56119949960756],[127.12295529260354,37.563489898049575],[127.12861021460654,37.566160430465544],[127.13426699109458,37.56795421845323],[127.13766551679248,37.56842420438597],[127.14894954225981,37.56843431311799],[127.15498105860256,37.5720435323813],[127.15689916806448,37.572954111248016],[127.16255503488907,37.57673011534883],[127.16674716069207,37.578975661184856],[127.1702512399587,37.57901683627757],[127.17183724261812,37.57926232931998],[127.17510615577659,37.580266951106125],[127.17715459292928,37.58120065769322],[127.17714260338506,37.579858261444144],[127.17662091124635,37.57900928975325]]]}},{"type":"Feature","properties":{"zoneId":"Z000300008","zoneName":"강남서초학교군","level":"high","eduOffice":"서울특별시강남서초교육지원청"},"geometry":{"type":"Polygon","coordinates":[[[127.03967943101428,37.535840135693185],[127.04601007783974,37.53426061558453],[127.05512677434739,37.52866757608982],[127.06015620102937,37.52709070015108],[127.06545601091386,37.52507028063628],[127.06646362529943,37.524960204694885],[127.06750087583919,37.524583743550586],[127.06772778415213,37.51932124666729],[127.06981648418744,37.502739182383756],[127.07698730992378,37.502069766558236],[127.08421403805156,37.499652783913454],[127.09479397672372,37.496680906664515],[127.09780082094159,37.495479039579855],[127.097400423503,37.49518935079654],[127.09976240172416,37.49450884079221],[127.1035120932886,37.492705079065225],[127.10700668826502,37.490291557293055],[127.11296762294505,37.48172207553445],[127.12420665477501,37.46652088006964],[127.12185907967452,37.465138847266914],[127.12143908965197,37.464372295822365],[127.12074545679978,37.46389180721313],[127.11747457130893,37.46220060728742],[127.11698901822123,37.46148450463923],[127.11689582174856,37.458640521775564],[127.11549579062631,37.458697913337616],[127.11514824883439,37.459060055624974],[127.11395508712484,37.459516763786475],[127.11327083720714,37.46005491480029],[127.1132331353633,37.46035340927038],[127.1127627336152,37.46053039428583],[127.11329160028554,37.460836803671306],[127.11333364870899,37.461087641031625],[127.11222957652542,37.46150539094826],[127.10989082070914,37.4619414511874],[127.10945890763303,37.46187089197289],[127.10815327161608,37.46227442817642],[127.10730150866624,37.46218086874109],[127.106167085002,37.46240685248879],[127.1056079764245,37.46217843528118],[127.10434095289283,37.46217475118339],[127.10478003190812,37.46116018043599],[127.10402313902458,37.46055744336467],[127.10394137957064,37.46005098628993],[127.10344260058335,37.45975182667658],[127.10269163264725,37.459724325006746],[127.10263389410035,37.45986739999125],[127.10138091613737,37.45897281257581],[127.10116452987975,37.458540514021145],[127.10127752019592,37.45824167946805],[127.10076561107924,37.45775979442727],[127.09973849909288,37.45735463176909],[127.09909542791334,37.45621877268541],[127.09889292063578,37.45611617373417],[127.09823718355959,37.45637124313839],[127.09636504102082,37.45634685698836],[127.09576906299063,37.45651965107139],[127.09377329723199,37.45607776055487],[127.09354013828762,37.4558884515811],[127.09272523417098,37.45363403640016],[127.09188198043366,37.45346687233093],[127.09112856477455,37.45295584428537],[127.09030258822153,37.45126679660882],[127.08961928448286,37.45088690980573],[127.08954251616854,37.45016616267974],[127.0888208588879,37.44974970106448],[127.088959313771,37.449461846542896],[127.0884318624998,37.44899483976511],[127.08832654376764,37.448627756351236],[127.08864212791464,37.4475969972925],[127.08836908388662,37.44724045342164],[127.08838630065355,37.4463977212774],[127.08785484753327,37.44489426722429],[127.08642107539151,37.444262636517806],[127.08570278661841,37.44441715910828],[127.08386167536314,37.44392178656588],[127.08380480156167,37.443416694759925],[127.08209711674819,37.441351183587805],[127.08017137742594,37.441051490821636],[127.07957511996234,37.44138694334173],[127.07908312827308,37.44129913987686],[127.07817868233208,37.44155201220702],[127.07774818263651,37.44186341748534],[127.07707772732105,37.441651272967775],[127.07601035245602,37.44213933391548],[127.07524263102515,37.441942160510735],[127.07475576339264,37.44221924045941],[127.07299309904465,37.442017587697435],[127.07213822274325,37.44226306782664],[127.07162566824695,37.441523977944975],[127.0722114380153,37.43938289808966],[127.07200755049058,37.438856771906906],[127.07375991490198,37.437789429799324],[127.07384323154834,37.43740785539312],[127.07302395116476,37.436406829700594],[127.07168847536343,37.43598105590971],[127.07127181456819,37.43560147386981],[127.07151954393642,37.43411691496335],[127.07057081254699,37.43241681900847],[127.07095978231087,37.4316963443301],[127.07116938733147,37.43042045286545],[127.07088440260232,37.430188343824035],[127.06987340137125,37.430972228277504],[127.06961515283557,37.430611687511906],[127.06896391834321,37.43043242816026],[127.06826998629492,37.43067947344216],[127.0678296377448,37.43040660719097],[127.06670008981995,37.43012876011865],[127.06596112795539,37.42953281524735],[127.06568138149139,37.42898531499367],[127.0643853719837,37.42911356692176],[127.0633159230138,37.42975159592018],[127.06114471274391,37.42998527872957],[127.05996106663513,37.429568876489725],[127.05905709965347,37.429663644591244],[127.05806965283412,37.430010729697564],[127.05368412240169,37.42897461150865],[127.0521692055277,37.42833977190767],[127.05135878774361,37.429198336388914],[127.05019323224325,37.42990216895516],[127.04986495166607,37.430309729631425],[127.04736896245416,37.43070181543283],[127.04722447607011,37.43204043872613],[127.04653615574311,37.43265084757191],[127.04631136822432,37.433447199982936],[127.04462590474128,37.4340686781888],[127.044185450745,37.43505544902805],[127.04264596002568,37.43637230588092],[127.04144263225747,37.43710958186489],[127.0410900374115,37.437769120457475],[127.04005249853915,37.438237141492294],[127.03706748574852,37.43827496411031],[127.03632247985647,37.438778344961875],[127.03557344768876,37.4390040933198],[127.03517158314303,37.44094194420217],[127.03643071259579,37.44183272886372],[127.0369745013228,37.44289688293966],[127.03748265965974,37.443266701173926],[127.03823011849559,37.44518026453522],[127.03820538502478,37.44585884720189],[127.03725375161964,37.446448452184],[127.03753123788118,37.44736148461336],[127.03715896260205,37.448010319761146],[127.03737447844324,37.448564375404466],[127.03781168902029,37.44892239207067],[127.03774411952226,37.44941881192915],[127.03577614357444,37.45219590464547],[127.03537106003549,37.45222671148706],[127.03475441080401,37.45261741704703],[127.03482332084673,37.45310619286749],[127.03546891618568,37.45343740975956],[127.0355878799526,37.45408750363819],[127.03626712904689,37.45426216576665],[127.03642465585246,37.454650677392635],[127.03712742184915,37.45520767575861],[127.03674037193329,37.456443863783946],[127.03576301628681,37.457481434587905],[127.03496817886166,37.45798904522305],[127.03492394212866,37.46017539897903],[127.03385698686048,37.45994020290683],[127.03339970969746,37.46056969092566],[127.03354378197623,37.46174254522408],[127.03432502326618,37.46323704633337],[127.03436613591956,37.464061570860075],[127.03314030838975,37.46501738422725],[127.03192148642296,37.46551887851079],[127.0311952685181,37.46562605673921],[127.0295269981133,37.46537447158154],[127.02960586859717,37.46327539317522],[127.02804281606667,37.46124511442886],[127.02838903371475,37.45995547528692],[127.02743396660757,37.45999214500123],[127.02711439261492,37.45974036150927],[127.02657200629851,37.45964164636702],[127.0264009889268,37.45945444443246],[127.02644476346258,37.4583366404827],[127.02599513796469,37.457816954231745],[127.02279248772462,37.457250498151794],[127.02169512806832,37.45631501650706],[127.02036554918973,37.456158162425794],[127.01969173182361,37.45578660251602],[127.01906021297268,37.45574897433823],[127.01754509710302,37.45613520649229],[127.01694604405822,37.45596972559291],[127.01628771503181,37.45522957839197],[127.0155745682429,37.454916010281046],[127.01450933940836,37.45486122371157],[127.01338644100915,37.45534760591269],[127.0123722838795,37.45554873602386],[127.01082298962407,37.4554230075465],[127.01058397083936,37.45616888585365],[127.00871059103676,37.45776493049835],[127.00821375045243,37.459099851200406],[127.0070406470081,37.460215465725796],[127.00576920390758,37.46254827279778],[127.00496847834671,37.46318689588461],[127.00446939263594,37.464073271643656],[127.00490518768666,37.46584259493303],[127.00448856262335,37.466328312451346],[127.0045242569362,37.46679768118095],[127.0036750752378,37.467720380278315],[127.00273454242605,37.467124604984235],[127.00196251839597,37.46708744640949],[127.00148564110576,37.46732311283067],[127.00047658676375,37.467062943429276],[126.99877922977731,37.4672341067765],[126.99780163001154,37.46702262351414],[126.99717071531066,37.467214065952405],[126.9962307711097,37.46660838900142],[126.99664290417196,37.465427524278375],[126.99661892648845,37.464778522336644],[126.99719331680002,37.46418416167587],[126.9973704961047,37.46368748849119],[126.9969846263325,37.463158981842064],[126.99676835020146,37.46187334663544],[126.99428965227253,37.46142131515466],[126.99335413485711,37.46149586463537],[126.99265490402657,37.46034393513856],[126.99169819304728,37.46051899433069],[126.99133178224741,37.46013603964449],[126.98999425977065,37.45946297331151],[126.989498851486,37.45852278877113],[126.98864556734945,37.4581448342404],[126.98786407010193,37.45929155528317],[126.98755008914708,37.46014860875022],[126.98833920170789,37.463999357402635],[126.98793422137283,37.4659373176484],[126.98710438222676,37.4672281952884],[126.98727351686044,37.46761902718966],[126.98532481962815,37.469249871629614],[126.98357804704095,37.47108231372187],[126.98215741748197,37.47372315464574],[126.981868841442,37.47486991179664],[126.98168066945925,37.47713783161554],[126.98218717994274,37.48670285443183],[126.98197363163966,37.48671470273602],[126.98210486398487,37.48839109585595],[126.98230811213435,37.48839156976236],[126.9826252817511,37.49007556069306],[126.98292532898218,37.49699388026611],[126.98538482322364,37.499860824043594],[126.9834119749232,37.50125708680025],[126.98081723225333,37.50257128306517],[126.9803239010391,37.504119980996286],[126.98040333800242,37.50654460035552],[126.98554048905785,37.506543441568915],[126.99068376306172,37.51309568095231],[127.0007917077576,37.51950085344864],[127.0064561756982,37.523440075806135],[127.01368832141084,37.530878388961426],[127.01774706968581,37.53424845528871],[127.02117563515772,37.53582129348105],[127.03967943101428,37.535840135693185]]]}},{"type":"Feature","properties":{"zoneId":"Z000300006","zoneName":"강동송파학교군","level":"high","eduOffice":"서울특별시강동송파교육지원청"},"geometry":{"type":"Polygon","coordinates":[[[127.1783383759849,37.57058448113407],[127.17921574453474,37.56891831141916],[127.17966480658656,37.56527932932348],[127.18118545358588,37.563016961814455],[127.18199514147237,37.56099244104775],[127.18198396342743,37.55965589599868],[127.18155342205239,37.55755331163678],[127.18168353502293,37.555995807922216],[127.18139183481797,37.55492154422288],[127.1813400965399,37.55296534901876],[127.18252209957895,37.55254496967833],[127.18316443428724,37.55195992175742],[127.18349775280784,37.5510276993974],[127.18376120248978,37.54857187921803],[127.18375490996105,37.5455115312992],[127.18353888632565,37.54517038902908],[127.18284626801793,37.54557971294544],[127.1822021463427,37.545724859247485],[127.18169255061058,37.546444745296654],[127.18125615829491,37.54657971149705],[127.17933100444861,37.54656742226016],[127.17841727973332,37.546279634731505],[127.17667296188866,37.54532005193683],[127.17598110585124,37.54563651275716],[127.17571719032135,37.54520809016175],[127.1743144308478,37.54529770842188],[127.17413769238912,37.545712424705926],[127.17361518084114,37.545539744765655],[127.1721068149068,37.54553461873079],[127.16976335302743,37.54480507789659],[127.16882244898534,37.545148234935695],[127.16773017031409,37.545057567126335],[127.1676460344707,37.54492120879829],[127.1672038939281,37.545130029351604],[127.16696962542585,37.5447989998101],[127.16695942671005,37.54425310205054],[127.16513322716038,37.544298580040696],[127.16487327004577,37.54453256495533],[127.1632513269293,37.544887634965704],[127.16170923813799,37.54346028588212],[127.16031018968236,37.54162612752385],[127.1597231806637,37.54135689720623],[127.15957271304053,37.54098717029569],[127.15765116613295,37.539270199878025],[127.15717439718006,37.53844135112369],[127.15694054007774,37.53837099226166],[127.15678861209587,37.537658566591006],[127.15603251196553,37.53734272975139],[127.15452583095758,37.53486927714249],[127.15402113310337,37.53451491183406],[127.15356647295127,37.533665439199325],[127.15393333961038,37.53191990426108],[127.1533765549933,37.53133090226627],[127.15353887753946,37.53043710781983],[127.1531286694742,37.52994825108546],[127.15329000078927,37.529468985103776],[127.15316359113969,37.529109092970245],[127.15040174560225,37.52637283336517],[127.14986847201507,37.52620767206893],[127.14945502433844,37.52575092609093],[127.14947601623759,37.52502053694193],[127.14859536018629,37.523561079553524],[127.14859817530844,37.52319176800382],[127.14817890963968,37.522922269926404],[127.14779720524002,37.522149861563626],[127.14566554581607,37.52193224186193],[127.14478563295809,37.519624577744395],[127.14485538269797,37.517747603065935],[127.14543893765837,37.51606513001292],[127.14460332317346,37.51560663816252],[127.14061415189079,37.515589162838005],[127.14120944229839,37.51504475857266],[127.14342970692125,37.51388067944115],[127.14352812271088,37.51265717483041],[127.14288443617924,37.512733683670305],[127.1414393932278,37.512400630681235],[127.14110476994142,37.51112724244289],[127.1412169524824,37.5108230241233],[127.1409466563091,37.51039819120325],[127.1403428142291,37.51022517051667],[127.13993462526318,37.50852389341422],[127.14030903907421,37.508304962977505],[127.14034689496175,37.507751929385684],[127.14088460108346,37.50743792812648],[127.14151642092155,37.50670849283732],[127.1408126203716,37.505978955377806],[127.14104816702601,37.50540710681035],[127.14342380452774,37.50441402599708],[127.14454695218059,37.50421613615554],[127.14512583307804,37.503556867584074],[127.14541574772753,37.503614229425175],[127.14550226795214,37.50330610086877],[127.1459518427562,37.50322727686976],[127.14719405631641,37.50338426915157],[127.14769469087635,37.50321245515928],[127.14805359567926,37.50357776788746],[127.14860220431024,37.50372321479508],[127.15020433429477,37.504742433141125],[127.15210891132321,37.50297068407827],[127.15284401224251,37.50305562262412],[127.15323060061435,37.50267980372251],[127.15395383134194,37.50266423195916],[127.15643772853802,37.50185939597163],[127.15772900893138,37.50317934579132],[127.15886588744104,37.50239058651001],[127.15939667013015,37.501363025916724],[127.16050404065852,37.50109490292626],[127.16139007545391,37.50020143942229],[127.16135420264312,37.49953784582901],[127.16063275288452,37.49854969455107],[127.16056633133726,37.49755530183238],[127.15977920001816,37.49682401906157],[127.16002598579544,37.494374945662756],[127.15965173304025,37.49343475024808],[127.15853846392997,37.49218271719948],[127.1582599745312,37.491149750559885],[127.15833629646936,37.49066390571898],[127.15588693319107,37.48914956210997],[127.15454724719295,37.48709364184535],[127.15217778876423,37.48623595372734],[127.15122799541959,37.48551241278093],[127.15075386597911,37.484742387823175],[127.15102984584854,37.48395506640477],[127.15051416114868,37.48306541430673],[127.15062603918766,37.48193733497333],[127.14917961974832,37.48079882080067],[127.14888810282386,37.48005614406474],[127.14781625148584,37.47865557650223],[127.14437549135171,37.476448384961145],[127.14392091593467,37.475855965661744],[127.14317376597401,37.47532385797794],[127.14097121159404,37.47447109260674],[127.13967679377774,37.47418851274048],[127.13932959026619,37.47374264188494],[127.13936329554127,37.473438514145485],[127.13800406099578,37.47372644035026],[127.13556617165845,37.47456942313012],[127.1344092464545,37.47510485322925],[127.13366287595406,37.4756781065523],[127.13254015265818,37.47579226049949],[127.13022986400529,37.4750939919403],[127.1301921201103,37.472656263105065],[127.13040437023649,37.471888207466],[127.1354253374949,37.4692863210986],[127.13434895326526,37.4688871570798],[127.13385002106027,37.468508448419556],[127.13192273016426,37.46803615904826],[127.13066765411799,37.46804964781739],[127.13012880001334,37.46775656620618],[127.12703330862406,37.468413676105854],[127.12520278866272,37.46962014000292],[127.12487811558755,37.469597673590194],[127.12519914448207,37.46783362506239],[127.1250477193639,37.46726502430975],[127.12420665477501,37.46652088006964],[127.11296762294505,37.48172207553445],[127.10700668826502,37.490291557293055],[127.1035120932886,37.492705079065225],[127.09976240172416,37.49450884079221],[127.097400423503,37.49518935079654],[127.09780082094159,37.495479039579855],[127.09479397672372,37.496680906664515],[127.08421403805156,37.499652783913454],[127.07698730992378,37.502069766558236],[127.06981648418744,37.502739182383756],[127.06772778415213,37.51932124666729],[127.06750087583919,37.524583743550586],[127.06866331720559,37.52387158261759],[127.07695381020145,37.522515094415],[127.07997570611025,37.52295066766493],[127.08563301986175,37.5247605936227],[127.09014197493605,37.527007530149874],[127.10828300637868,37.54140812723789],[127.10845152052873,37.54204176795595],[127.11146538655039,37.546942925450175],[127.1115538211829,37.55050707380569],[127.11425811796079,37.55436632061839],[127.11564535571993,37.55769987559845],[127.11733898823849,37.55946361568207],[127.12009622078864,37.56119949960756],[127.12295529260354,37.563489898049575],[127.12861021460654,37.566160430465544],[127.13426699109458,37.56795421845323],[127.13766551679248,37.56842420438597],[127.14894954225981,37.56843431311799],[127.15498105860256,37.5720435323813],[127.15689916806448,37.572954111248016],[127.16255503488907,37.57673011534883],[127.16674716069207,37.578975661184856],[127.17025120836084,37.579016880471784],[127.17183721102109,37.57926237351463],[127.1751061309737,37.580266995291566],[127.17715459644944,37.581200709945506],[127.17706013448594,37.579544722539545],[127.1765372401128,37.57893226649053],[127.1754420410281,37.578363165247055],[127.17532727043381,37.57723513198336],[127.17576369315432,37.575660862097365],[127.17570179761002,37.57483204740704],[127.17781903339466,37.57205809253839],[127.17783937899272,37.57146368874665],[127.1783383759849,37.57058448113407]]]}},{"type":"Feature","properties":{"zoneId":"Z000300007","zoneName":"강서양천학교군","level":"high","eduOffice":"서울특별시강서양천교육지원청"},"geometry":{"type":"Polygon","coordinates":[[[126.80902146937775,37.60064321799541],[126.81136894896075,37.598960781262136],[126.81395326246925,37.59761935313669],[126.81655629593514,37.59568156410317],[126.81752601764494,37.59533029083065],[126.81930255988529,37.592849711985494],[126.82781179331931,37.5874847936945],[126.83175967998076,37.58584314199021],[126.83714917695087,37.582563300384706],[126.83809796882052,37.58179287019354],[126.84324025831161,37.578878999094826],[126.84838130945134,37.575157102926816],[126.85352237486349,37.57189588916843],[126.855019475608,37.5702579983992],[126.85607022956366,37.56944306580388],[126.86382514367506,37.564489886579345],[126.86629113267769,37.56305257156581],[126.86906022188936,37.56196691881288],[126.88046370504185,37.5562694214198],[126.87923701635401,37.55474689176672],[126.87921716984226,37.55315128083493],[126.87824427355203,37.5535813296027],[126.87795377977308,37.55345010215685],[126.87804773439474,37.5517008746402],[126.87932727539307,37.55015531294814],[126.8803559268286,37.54845659982515],[126.88212772482746,37.54672455643417],[126.8827458104388,37.54575464858868],[126.88409184324071,37.54463679291583],[126.88424521892334,37.5435650447927],[126.88442638047763,37.543376016053806],[126.88508648252602,37.54331359934783],[126.8855133662463,37.54155399500959],[126.88653138370542,37.5393619124298],[126.88826018392291,37.53671466637665],[126.88992085687447,37.53486048093329],[126.89014754723149,37.53422888350096],[126.89003624290737,37.53370985948777],[126.88979689733377,37.53339561245782],[126.88869284097241,37.53280505052392],[126.88853023194717,37.532554869462025],[126.88862633408405,37.532124323225766],[126.8890862790522,37.5319086582562],[126.89028859791728,37.531868693875445],[126.89068400741019,37.53165620450083],[126.88953991712926,37.52999617190098],[126.88846133952278,37.53041241176338],[126.88715357668936,37.530179994168755],[126.88600268645796,37.529445969518534],[126.88417697360343,37.52866847794254],[126.88391013788937,37.52839002099556],[126.88374682645673,37.52758685730493],[126.8834301210368,37.52732750541799],[126.88272654351083,37.527248800170774],[126.88134992465613,37.527777021215414],[126.88090548171937,37.527706740862435],[126.88060298700871,37.527401228422306],[126.88117317986774,37.52652144213171],[126.8809412442993,37.52591183412969],[126.88054450334708,37.52574502391482],[126.87928459401611,37.525715851466394],[126.87875353135425,37.52535495544625],[126.87861406246877,37.52468351721048],[126.87942883826432,37.52050487312957],[126.87910370597666,37.520023349576235],[126.87835110353348,37.519485918068895],[126.87819549639562,37.51877931214003],[126.87873929694078,37.517941951706426],[126.87959062658526,37.51764465917638],[126.87931621451214,37.517488114571194],[126.87855472711783,37.51754251147747],[126.87900222638447,37.51690299014606],[126.87848245173863,37.516347490914654],[126.87794816945804,37.516135478206316],[126.87758387057377,37.514663094377354],[126.87790628334085,37.5133443193904],[126.87772593019196,37.51329147637951],[126.87725545306262,37.513727966109165],[126.8766480962078,37.51368396990375],[126.87609632860118,37.51241832390382],[126.87559606566472,37.512176215566704],[126.87518152028694,37.512449450899055],[126.87393615629387,37.51117067080206],[126.87419405196287,37.510728893431526],[126.87467700763197,37.51074996412681],[126.87489230946954,37.51103428970142],[126.87482167325116,37.51163112269608],[126.87517991727397,37.511830861503135],[126.87569729272228,37.51135641771285],[126.87656431482077,37.51114728851763],[126.87684458363978,37.51083871332418],[126.87652153449957,37.510620727750606],[126.87611788343204,37.511047705321225],[126.87552350767177,37.51107241848937],[126.87518423839138,37.510521042521816],[126.87560298561104,37.509740434507044],[126.87551317641375,37.50954831789988],[126.87501310463162,37.509305918871654],[126.874222169531,37.509470060388075],[126.87379926304087,37.50906021826348],[126.87390065724934,37.50866924026897],[126.87480032703812,37.508260535849026],[126.87503524200551,37.50770835901665],[126.87421281279666,37.50717476182784],[126.8743422693068,37.50679986189739],[126.8747121913946,37.506667362066565],[126.87417108613548,37.505311903884476],[126.87370532927933,37.50475644105341],[126.87356830536852,37.503554874697684],[126.87186561590673,37.504126837853654],[126.87146897810463,37.50468868624251],[126.87144835339082,37.505070172652566],[126.87101488194722,37.50526960875686],[126.87063063347601,37.50575904859097],[126.87025594630197,37.50584568640832],[126.86901257792161,37.50485207558373],[126.86805519242678,37.50488046483776],[126.86588947703694,37.505548215751105],[126.86493312665637,37.50554577191336],[126.86471461591638,37.50481180222007],[126.86351316018204,37.50501443553909],[126.86280669048806,37.50579542157052],[126.86258356382622,37.50677873295435],[126.86418074433082,37.50833294032185],[126.86399420338365,37.50846787361214],[126.86004348430366,37.50674859807106],[126.85815726453099,37.50988040186872],[126.8556124007818,37.50915543869879],[126.85519566601116,37.50971100837092],[126.85286681489104,37.51068596108398],[126.85139031971734,37.51012828710581],[126.85075629277532,37.51001007071772],[126.85008643456784,37.51013479536612],[126.84871352870707,37.5088834535379],[126.84729392313733,37.50948471739481],[126.84623446795567,37.50897651931506],[126.84629750206044,37.5082993770444],[126.84530476241626,37.507926190804476],[126.84438179703689,37.50648985005245],[126.84467688761345,37.50574044245783],[126.8435840975531,37.50582035579167],[126.84242821866744,37.50548065102294],[126.84074469776621,37.50604262027268],[126.83958931875468,37.50449583261655],[126.83848943975082,37.50442421414682],[126.83815078764586,37.503811914483514],[126.8374942402798,37.50327969608646],[126.83691789506084,37.50332028676911],[126.83524653467275,37.502869420399115],[126.83399341260413,37.5033789663617],[126.83362246095965,37.503870888532774],[126.83200762308498,37.50467920075197],[126.83118639123052,37.505869300039436],[126.83056554158578,37.506356067042],[126.83102508369936,37.5080309006553],[126.83064594552347,37.50822068754937],[126.8294924381755,37.50831980720891],[126.8281106133325,37.508799540578956],[126.82698823687687,37.50850309177025],[126.8270491335522,37.5092158154079],[126.82641627745419,37.50944913723467],[126.82707457861008,37.51035955954672],[126.82405988348836,37.51048120849779],[126.82385642479449,37.51087507983598],[126.82440784674968,37.513176545790955],[126.82425545859105,37.5144675608357],[126.82340103154635,37.51495337214803],[126.82310427799585,37.51622023693171],[126.82449591642452,37.51771572085524],[126.82561710860833,37.52007997492597],[126.82548008239091,37.521752520288885],[126.8256604755485,37.52223511092042],[126.82513706721619,37.52300551701771],[126.82582051831963,37.523708194426106],[126.82650665267239,37.52493231182329],[126.82795875410795,37.52568819016785],[126.82825836117978,37.526299899603025],[126.82883712535755,37.52651585920399],[126.82842748522067,37.52670277574107],[126.82793890018237,37.52800314626438],[126.82787477634619,37.52836486409563],[126.82821369715215,37.529029276134764],[126.82706947779141,37.52970868878658],[126.82531231188482,37.52995891807416],[126.82473522932061,37.53060029255002],[126.82457856294745,37.53121695863251],[126.82343045010533,37.53261656325663],[126.823552528165,37.53376326002707],[126.82270258775164,37.53375465112656],[126.82262267492855,37.534201089154756],[126.82186772667433,37.53490299658529],[126.82243375311886,37.53654309423613],[126.82232154900348,37.53792397360019],[126.82159029087799,37.539711897516696],[126.82212101924978,37.540677892266984],[126.81931951421656,37.54074398814253],[126.81631213274935,37.54055179561624],[126.8123339316866,37.5407366711081],[126.81055973403043,37.541515137312274],[126.80624041687824,37.54440757919555],[126.80732458644347,37.543590591915866],[126.80441123533399,37.543246767574125],[126.80184971705383,37.54271594382916],[126.79965283299386,37.54138832004503],[126.80054579571697,37.54146924746982],[126.80066139945899,37.541280235715995],[126.80030010075747,37.541186701700845],[126.80033280448349,37.5408567690305],[126.80078190721471,37.541043362970086],[126.80081434470965,37.54081226022942],[126.79927334180742,37.54063196406932],[126.7993618651139,37.540193730080254],[126.79886126343695,37.540292539722074],[126.79873604054166,37.53939865830344],[126.79924249600127,37.539287749700165],[126.79942637269535,37.53901917260806],[126.79944211562693,37.5388879887027],[126.79914579707359,37.53889113952984],[126.79946204203075,37.53772574396136],[126.7990878632386,37.53756517703918],[126.798253919396,37.53770509228045],[126.79834955725752,37.537252229756575],[126.79816761490244,37.537325121498526],[126.79780983392412,37.5370482884084],[126.79700612577496,37.537060134474636],[126.79661709151233,37.53677424215708],[126.796041719292,37.536749591395726],[126.79442489309814,37.535828882478924],[126.79396312276745,37.53736031575394],[126.79422308490855,37.538291893654794],[126.79393566794107,37.53942353784139],[126.79326218120663,37.53970278568244],[126.79437611811832,37.5402340771229],[126.79494420077602,37.541372014079926],[126.7918098476353,37.54190285884789],[126.79153567931344,37.54283123932774],[126.79181899846903,37.54374624757284],[126.7907596877379,37.543839812575186],[126.78938520883956,37.54446297237511],[126.78819224301257,37.54516584852666],[126.78726051939499,37.54607641378346],[126.78339460407004,37.54600851959891],[126.7820380703444,37.54632754254365],[126.78183602727495,37.5460687003152],[126.7787468420179,37.54671303099782],[126.77756273866207,37.546711917295426],[126.77674333138725,37.54820431866403],[126.77529308054451,37.548971615536765],[126.77258014827001,37.5487532403477],[126.77155154073023,37.548317919442496],[126.77135130557132,37.54862949753171],[126.77099255340055,37.548745647169376],[126.77084321659198,37.54935042361592],[126.76992192916121,37.55017499824112],[126.76984036431502,37.55064898419864],[126.77026744357333,37.5510865216812],[126.76978884855278,37.55106671637377],[126.76932030390728,37.55157204386912],[126.76807882635516,37.551571280571366],[126.76804878490609,37.551794783971935],[126.76746477658598,37.551950732995444],[126.76771364645401,37.55283306926789],[126.76736984538569,37.553131966406674],[126.76762499542285,37.553530321651095],[126.76728730446108,37.55368393772534],[126.76764117748458,37.55395465593099],[126.76755206922785,37.5541746632225],[126.76672698367385,37.55406490659382],[126.76636507346858,37.55376348183183],[126.76620407822648,37.554242371351656],[126.76633631463903,37.55487079480114],[126.76478380863398,37.55507464119865],[126.76449458557565,37.55527508852842],[126.76600873601338,37.55613377810788],[126.76672433727472,37.55631568064035],[126.76675151847785,37.5565040946696],[126.7662840801643,37.55691705972572],[126.76661883041963,37.55697431790822],[126.76735009667398,37.556619321856594],[126.76873533160192,37.55681661142548],[126.7689945828407,37.55709643745683],[126.76986702848427,37.55723048030218],[126.77243075398346,37.557012765734704],[126.77318391134285,37.55752750942535],[126.77177113628831,37.55863185713283],[126.77244585780694,37.55872269946873],[126.77274208489659,37.55940859223514],[126.77319198909508,37.55928642375884],[126.77359071074672,37.560057249782524],[126.77428874124197,37.559755927600385],[126.77416496647389,37.56015915923955],[126.77444812552365,37.56043619158587],[126.77480830378158,37.56045687669938],[126.77466288799162,37.56070380977151],[126.77493286710815,37.56090197781571],[126.77467906412203,37.56131932383394],[126.77545913736458,37.56143316314756],[126.77553452180501,37.561828336896696],[126.77575824640344,37.56194138819122],[126.77588609381026,37.56177044552113],[126.77610863133131,37.56186350082359],[126.77784184134703,37.5599330520642],[126.77792974472734,37.560286577829956],[126.77750925042746,37.5622823144921],[126.77694844275672,37.56222972122457],[126.77663197869884,37.56237412362652],[126.77674274190862,37.56323984129558],[126.7771013632572,37.56371945251762],[126.77594258094146,37.565205846131725],[126.77534262484237,37.56534350418684],[126.77557515324214,37.56559200008086],[126.77513178779834,37.56587947551267],[126.77476191357917,37.567708327266864],[126.7755303034829,37.568261086402096],[126.77540138675113,37.56731847090733],[126.77633323750783,37.56709190648597],[126.77672227460255,37.56605116029997],[126.77719645213888,37.56662926184393],[126.77780817997824,37.56699390729221],[126.77900308607337,37.567154685421315],[126.77917031114355,37.56831671480936],[126.7803180667478,37.56750403677821],[126.78054223940802,37.5678916000367],[126.78047403860585,37.56828706005962],[126.78093333476527,37.56871363465502],[126.78162555337444,37.56890160123561],[126.78189799938175,37.56923603212203],[126.78112384781063,37.56960146244707],[126.78048444231932,37.57027487989065],[126.7805206717605,37.57046387570821],[126.78148702094055,37.570181591311176],[126.78239345994223,37.57030125250968],[126.78262991631584,37.570547488205264],[126.7813746336814,37.57134956378928],[126.781899298316,37.57180834976188],[126.78213956375333,37.573169005941416],[126.78240801327084,37.5736062034488],[126.78524887553532,37.57486183890106],[126.78761395749423,37.57558355673671],[126.78804546995418,37.576168853250095],[126.78859499878962,37.57574553403818],[126.78920181515927,37.57558107252333],[126.7884699540745,37.57679834455603],[126.78934254964427,37.577723417065194],[126.78995482311643,37.577631606729305],[126.79001611727821,37.57734959063212],[126.79059453831678,37.57778366673592],[126.7908174324405,37.57897223867848],[126.79072754007345,37.580612428755046],[126.79126000779134,37.580920560318546],[126.79134865744379,37.58141372824531],[126.79160064197373,37.58131759963421],[126.79237369200995,37.57972760768907],[126.79273677087112,37.57683890834737],[126.79321898215193,37.57689381897727],[126.79325420709176,37.57853367481086],[126.79306658958225,37.57863920819505],[126.79284617541671,37.58016824098579],[126.79330993412022,37.580247050113606],[126.79382206266148,37.58182777339911],[126.79391196246954,37.58296147744959],[126.79373148909114,37.583038591669805],[126.79344078885401,37.58451964001017],[126.79378304626934,37.584469281943946],[126.79422428696581,37.58407164423422],[126.79454062321525,37.58354794237],[126.79440910208963,37.5826852992347],[126.79469760983908,37.58262217691645],[126.7949280089631,37.583426141478185],[126.7949328338939,37.58520306143523],[126.79524396551545,37.585215436069575],[126.79521723750578,37.58534996991636],[126.79554008327322,37.585154577409575],[126.79572151990723,37.58312063411467],[126.79709711224803,37.58427318491817],[126.79629402967143,37.584903327566586],[126.79642864709072,37.5850308257763],[126.79668496439984,37.58490851103174],[126.7972272798285,37.58538555940013],[126.7975982888324,37.58640544642476],[126.79876788267984,37.588072867374066],[126.79913976648106,37.58819513730176],[126.80049774156308,37.5877939881539],[126.80073787617978,37.587834941988625],[126.80094007409258,37.58816611723141],[126.80077336874034,37.5890414723497],[126.80109838365183,37.588967135503566],[126.80122703364879,37.58934886518332],[126.80051999767981,37.59030889643158],[126.80008679670068,37.59035151469692],[126.79944937343667,37.59113484679913],[126.79880100447076,37.59132265590475],[126.7989924369123,37.592426127972935],[126.79961125137304,37.59244296283744],[126.80004954402784,37.59202840442842],[126.80028693500925,37.59204176618591],[126.80050123737558,37.59241322770456],[126.79865947112978,37.59366750733288],[126.79760789614734,37.59488230066074],[126.79708222544714,37.597738921002794],[126.79748369110982,37.597669509037175],[126.79753591518288,37.59778559295253],[126.79764205606554,37.59928281245116],[126.7980526856488,37.60020816067663],[126.79817371860882,37.60033647217772],[126.79853481878602,37.600086512271325],[126.7992181883116,37.60111930955306],[126.79996597981845,37.60149646122308],[126.79978561853815,37.60191201053924],[126.79994067496497,37.602544656983035],[126.80258119295563,37.60503286123471],[126.80586388907892,37.60258020903135],[126.80902146937775,37.60064321799541]]]}}]}